[{"OBJECT_NAME":"ONEWEB-0340","OBJECT_ID":"2021-083W","EPOCH":"2026-06-05T10:45:53.943264","MEAN_MOTION":13.1868665,"ECCENTRICITY":0.0002003,"INCLINATION":87.9167,"RA_OF_ASC_NODE":337.7909,"ARG_OF_PERICENTER":91.1084,"MEAN_ANOMALY":269.0277,"EPHEMERIS_TYPE":0,"CLASSIFICATION_TYPE":"U","NORAD_CAT_ID":49206,"ELEMENT_SET_NO":999,"REV_AT_EPOCH":22842,"BSTAR":-0.00014787,"MEAN_MOTION_DOT":-4.5e-07,"MEAN_MOTION_DDOT":0.0},{"OBJECT_NAME":"ONEWEB-0341","OBJECT_ID":"2021-083X","EPOCH":"2026-06-05T10:55:36.914304","MEAN_MOTION":13.18686075,"ECCENTRICITY":0.0002041,"INCLINATION":87.9168,"RA_OF_ASC_NODE":337.7951,"ARG_OF_PERICENTER":105.4321,"MEAN_ANOMALY":254.7037,"EPHEMERIS_TYPE":0,"CLASSIFICATION_TYPE":"U","NORAD_CAT_ID":49207,"ELEMENT_SET_NO":999,"REV_AT_EPOCH":22844,"BSTAR":9.8591e-05,"MEAN_MOTION_DOT":5.2e-07,"MEAN_MOTION_DDOT":0.0},{"OBJECT_NAME":"ONEWEB-0342","OBJECT_ID":"2021-083Y","EPOCH":"2026-06-05T14:36:20.043648","MEAN_MOTION":13.20771854,"ECCENTRICITY":0.0001775,"INCLINATION":87.9187,"RA_OF_ASC_NODE":276.7449,"ARG_OF_PERICENTER":101.82,"MEAN_ANOMALY":258.3132,"EPHEMERIS_TYPE":0,"CLASSIFICATION_TYPE":"U","NORAD_CAT_ID":49208,"ELEMENT_SET_NO":999,"REV_AT_EPOCH":23525,"BSTAR":-0.00045273000000000004,"MEAN_MOTION_DOT":-1.71e-06,"MEAN_MOTION_DDOT":0.0},{"OBJECT_NAME":"ONEWEB-0343","OBJECT_ID":"2021-083Z","EPOCH":"2026-06-05T11:07:45.852096","MEAN_MOTION":13.18685483,"ECCENTRICITY":0.0001387,"INCLINATION":87.9174,"RA_OF_ASC_NODE":337.7916,"ARG_OF_PERICENTER":95.8183,"MEAN_ANOMALY":264.3107,"EPHEMERIS_TYPE":0,"CLASSIFICATION_TYPE":"U","NORAD_CAT_ID":49209,"ELEMENT_SET_NO":999,"REV_AT_EPOCH":22849,"BSTAR":0.00011428000000000001,"MEAN_MOTION_DOT":5.8e-07,"MEAN_MOTION_DDOT":0.0},{"OBJECT_NAME":"ONEWEB-0344","OBJECT_ID":"2021-083AA","EPOCH":"2026-06-05T16:38:13.814880","MEAN_MOTION":13.13470812,"ECCENTRICITY":0.0001905,"INCLINATION":87.8938,"RA_OF_ASC_NODE":322.5314,"ARG_OF_PERICENTER":105.4983,"MEAN_ANOMALY":254.6356,"EPHEMERIS_TYPE":0,"CLASSIFICATION_TYPE":"U","NORAD_CAT_ID":49210,"ELEMENT_SET_NO":999,"REV_AT_EPOCH":22938,"BSTAR":0.0002524,"MEAN_MOTION_DOT":1.05e-06,"MEAN_MOTION_DDOT":0.0},{"OBJECT_NAME":"ONEWEB-0345","OBJECT_ID":"2021-083AB","EPOCH":"2026-06-05T16:26:02.031072","MEAN_MOTION":13.13470281,"ECCENTRICITY":0.0001889,"INCLINATION":87.8953,"RA_OF_ASC_NODE":322.512,"ARG_OF_PERICENTER":103.6237,"MEAN_ANOMALY":256.5103,"EPHEMERIS_TYPE":0,"CLASSIFICATION_TYPE":"U","NORAD_CAT_ID":49211,"ELEMENT_SET_NO":999,"REV_AT_EPOCH":22939,"BSTAR":0.00096403,"MEAN_MOTION_DOT":3.65e-06,"MEAN_MOTION_DDOT":0.0},{"OBJECT_NAME":"ONEWEB-0346","OBJECT_ID":"2021-083AC","EPOCH":"2026-06-05T11:02:53.932416","MEAN_MOTION":13.18686359,"ECCENTRICITY":0.0002405,"INCLINATION":87.9168,"RA_OF_ASC_NODE":337.793,"ARG_OF_PERICENTER":86.4704,"MEAN_ANOMALY":273.6703,"EPHEMERIS_TYPE":0,"CLASSIFICATION_TYPE":"U","NORAD_CAT_ID":49212,"ELEMENT_SET_NO":999,"REV_AT_EPOCH":22843,"BSTAR":-0.00015154,"MEAN_MOTION_DOT":-4.7e-07,"MEAN_MOTION_DDOT":0.0},{"OBJECT_NAME":"ONEWEB-0348","OBJECT_ID":"2021-083AD","EPOCH":"2026-06-05T14:21:46.892160","MEAN_MOTION":13.20771371,"ECCENTRICITY":0.0002495,"INCLINATION":87.9191,"RA_OF_ASC_NODE":276.7498,"ARG_OF_PERICENTER":102.3726,"MEAN_ANOMALY":257.7686,"EPHEMERIS_TYPE":0,"CLASSIFICATION_TYPE":"U","NORAD_CAT_ID":49213,"ELEMENT_SET_NO":999,"REV_AT_EPOCH":23528,"BSTAR":0.00026565,"MEAN_MOTION_DOT":1.21e-06,"MEAN_MOTION_DDOT":0.0},{"OBJECT_NAME":"ONEWEB-0350","OBJECT_ID":"2021-083AE","EPOCH":"2026-06-05T16:43:22.656000","MEAN_MOTION":13.12941909,"ECCENTRICITY":0.0001953,"INCLINATION":87.8949,"RA_OF_ASC_NODE":322.5123,"ARG_OF_PERICENTER":101.4445,"MEAN_ANOMALY":258.6903,"EPHEMERIS_TYPE":0,"CLASSIFICATION_TYPE":"U","NORAD_CAT_ID":49214,"ELEMENT_SET_NO":999,"REV_AT_EPOCH":22942,"BSTAR":0.00010268,"MEAN_MOTION_DOT":5e-07,"MEAN_MOTION_DDOT":0.0},{"OBJECT_NAME":"ONEWEB-0351","OBJECT_ID":"2021-083AF","EPOCH":"2026-06-05T14:11:52.175040","MEAN_MOTION":13.20772036,"ECCENTRICITY":0.0001533,"INCLINATION":87.9189,"RA_OF_ASC_NODE":276.7498,"ARG_OF_PERICENTER":125.433,"MEAN_ANOMALY":234.6947,"EPHEMERIS_TYPE":0,"CLASSIFICATION_TYPE":"U","NORAD_CAT_ID":49215,"ELEMENT_SET_NO":999,"REV_AT_EPOCH":23524,"BSTAR":-0.00019441,"MEAN_MOTION_DOT":-6.6e-07,"MEAN_MOTION_DDOT":0.0},{"OBJECT_NAME":"ONEWEB-0352","OBJECT_ID":"2021-083AG","EPOCH":"2026-06-05T10:42:19.687680","MEAN_MOTION":13.13470365,"ECCENTRICITY":0.0001416,"INCLINATION":87.8949,"RA_OF_ASC_NODE":322.5716,"ARG_OF_PERICENTER":101.2063,"MEAN_ANOMALY":258.9226,"EPHEMERIS_TYPE":0,"CLASSIFICATION_TYPE":"U","NORAD_CAT_ID":49216,"ELEMENT_SET_NO":999,"REV_AT_EPOCH":22948,"BSTAR":0.00088427,"MEAN_MOTION_DOT":3.36e-06,"MEAN_MOTION_DDOT":0.0},{"OBJECT_NAME":"ONEWEB-0354","OBJECT_ID":"2021-083AH","EPOCH":"2026-06-05T14:50:53.799936","MEAN_MOTION":13.20773004,"ECCENTRICITY":0.0002266,"INCLINATION":87.9189,"RA_OF_ASC_NODE":276.744,"ARG_OF_PERICENTER":105.1861,"MEAN_ANOMALY":254.9523,"EPHEMERIS_TYPE":0,"CLASSIFICATION_TYPE":"U","NORAD_CAT_ID":49217,"ELEMENT_SET_NO":999,"REV_AT_EPOCH":23528,"BSTAR":0.00015839,"MEAN_MOTION_DOT":7.7e-07,"MEAN_MOTION_DDOT":0.0},{"OBJECT_NAME":"ONEWEB-0355","OBJECT_ID":"2021-083AJ","EPOCH":"2026-06-05T16:53:02.757696","MEAN_MOTION":13.13469018,"ECCENTRICITY":0.0001698,"INCLINATION":87.8942,"RA_OF_ASC_NODE":322.5218,"ARG_OF_PERICENTER":101.3669,"MEAN_ANOMALY":258.7651,"EPHEMERIS_TYPE":0,"CLASSIFICATION_TYPE":"U","NORAD_CAT_ID":49218,"ELEMENT_SET_NO":999,"REV_AT_EPOCH":22939,"BSTAR":-0.00024033,"MEAN_MOTION_DOT":-7.5e-07,"MEAN_MOTION_DDOT":0.0},{"OBJECT_NAME":"ONEWEB-0357","OBJECT_ID":"2021-083AK","EPOCH":"2026-06-05T14:46:02.613792","MEAN_MOTION":13.20773163,"ECCENTRICITY":0.0001737,"INCLINATION":87.919,"RA_OF_ASC_NODE":276.7389,"ARG_OF_PERICENTER":104.7304,"MEAN_ANOMALY":255.4022,"EPHEMERIS_TYPE":0,"CLASSIFICATION_TYPE":"U","NORAD_CAT_ID":49219,"ELEMENT_SET_NO":999,"REV_AT_EPOCH":23528,"BSTAR":0.00034118,"MEAN_MOTION_DOT":1.52e-06,"MEAN_MOTION_DDOT":0.0},{"OBJECT_NAME":"ONEWEB-0332","OBJECT_ID":"2021-090A","EPOCH":"2026-06-05T19:13:22.492128","MEAN_MOTION":13.14504504,"ECCENTRICITY":0.0001648,"INCLINATION":87.8955,"RA_OF_ASC_NODE":291.9785,"ARG_OF_PERICENTER":98.1385,"MEAN_ANOMALY":261.9932,"EPHEMERIS_TYPE":0,"CLASSIFICATION_TYPE":"U","NORAD_CAT_ID":49279,"ELEMENT_SET_NO":999,"REV_AT_EPOCH":22608,"BSTAR":-0.00027300999999999996,"MEAN_MOTION_DOT":-8.8e-07,"MEAN_MOTION_DDOT":0.0},{"OBJECT_NAME":"ONEWEB-0347","OBJECT_ID":"2021-090B","EPOCH":"2026-06-05T14:31:29.235072","MEAN_MOTION":13.20772313,"ECCENTRICITY":0.000177,"INCLINATION":87.9194,"RA_OF_ASC_NODE":276.7492,"ARG_OF_PERICENTER":95.2762,"MEAN_ANOMALY":264.8573,"EPHEMERIS_TYPE":0,"CLASSIFICATION_TYPE":"U","NORAD_CAT_ID":49280,"ELEMENT_SET_NO":999,"REV_AT_EPOCH":22951,"BSTAR":-0.00021131,"MEAN_MOTION_DOT":-7.3e-07,"MEAN_MOTION_DDOT":0.0}]