ONEWEB-0340             
1 49206U 21083W   26156.44854101 -.00000045  00000+0 -14787-3 0  9992
2 49206  87.9167 337.7909 0002003  91.1084 269.0277 13.18686650228422
ONEWEB-0341             
1 49207U 21083X   26156.45528836  .00000052  00000+0  98591-4 0  9999
2 49207  87.9168 337.7951 0002041 105.4321 254.7037 13.18686075228444
ONEWEB-0342             
1 49208U 21083Y   26156.60856532 -.00000171  00000+0 -45273-3 0  9996
2 49208  87.9187 276.7449 0001775 101.8200 258.3132 13.20771854235255
ONEWEB-0343             
1 49209U 21083Z   26156.46372514  .00000058  00000+0  11428-3 0  9991
2 49209  87.9174 337.7916 0001387  95.8183 264.3107 13.18685483228496
ONEWEB-0344             
1 49210U 21083AA  26156.69321545  .00000105  00000+0  25240-3 0  9996
2 49210  87.8938 322.5314 0001905 105.4983 254.6356 13.13470812229381
ONEWEB-0345             
1 49211U 21083AB  26156.68474573  .00000365  00000+0  96403-3 0  9993
2 49211  87.8953 322.5120 0001889 103.6237 256.5103 13.13470281229399
ONEWEB-0346             
1 49212U 21083AC  26156.46034644 -.00000047  00000+0 -15154-3 0  9994
2 49212  87.9168 337.7930 0002405  86.4704 273.6703 13.18686359228438
ONEWEB-0348             
1 49213U 21083AD  26156.59845940  .00000121  00000+0  26565-3 0  9997
2 49213  87.9191 276.7498 0002495 102.3726 257.7686 13.20771371235283
ONEWEB-0350             
1 49214U 21083AE  26156.69679000  .00000050  00000+0  10268-3 0  9995
2 49214  87.8949 322.5123 0001953 101.4445 258.6903 13.12941909229423
ONEWEB-0351             
1 49215U 21083AF  26156.59157610 -.00000066  00000+0 -19441-3 0  9994
2 49215  87.9189 276.7498 0001533 125.4330 234.6947 13.20772036235240
ONEWEB-0352             
1 49216U 21083AG  26156.44606120  .00000336  00000+0  88427-3 0  9992
2 49216  87.8949 322.5716 0001416 101.2063 258.9226 13.13470365229482
ONEWEB-0354             
1 49217U 21083AH  26156.61867824  .00000077  00000+0  15839-3 0  9991
2 49217  87.9189 276.7440 0002266 105.1861 254.9523 13.20773004235282
ONEWEB-0355             
1 49218U 21083AJ  26156.70350414 -.00000075  00000+0 -24033-3 0  9990
2 49218  87.8942 322.5218 0001698 101.3669 258.7651 13.13469018229392
ONEWEB-0357             
1 49219U 21083AK  26156.61530803  .00000152  00000+0  34118-3 0  9992
2 49219  87.9190 276.7389 0001737 104.7304 255.4022 13.20773163235283
ONEWEB-0332             
1 49279U 21090A   26156.80095477 -.00000088  00000+0 -27301-3 0  9996
2 49279  87.8955 291.9785 0001648  98.1385 261.9932 13.14504504226086
ONEWEB-0347             
1 49280U 21090B   26156.60519948 -.00000073  00000+0 -21131-3 0  9999
2 49280  87.9194 276.7492 0001770  95.2762 264.8573 13.20772313229519
